METHANESAT              
1 59101U 24043D   25296.09342711  .00005166  00000+0  46176-3 0  9994
2 59101  97.8171  61.7174 0011970  84.4752 275.7834 14.96278297 89171
GOSAT-GW (IBUKI GW)     
1 64694U 25141A   25295.57854057  .00001486  00000+0  27022-3 0  9990
2 64694  98.0344 232.0394 0001413  80.6561 279.4804 14.67574158 16994
GHGSAT-C1               
1 46278U 20061G   25296.20432013  .00028678  00000+0  41645-3 0  9998
2 46278  97.2376  11.0917 0002230 161.1755 198.9583 15.55769074286452
GHGSAT-C12              
1 64529U 25135B   25295.94763289  .00005775  00000+0  28695-3 0  9999
2 64529  97.4590  48.5223 0003849 282.2310  77.8493 15.18039725 18804
GHGSAT-C13              
1 64548U 25135W   25295.93519436  .00005466  00000+0  26527-3 0  9991
2 64548  97.4616  48.7272 0001187 150.8961 209.2340 15.18894632 18814
GHGSAT-C2               
1 47509U 21006DA  25296.10156425  .00008441  00000+0  25774-3 0  9996
2 47509  97.2521 342.4666 0004147 311.9442  48.1447 15.34138061263454
GHGSAT-C3               
1 52737U 22057F   25296.15396292  .00009857  00000+0  33883-3 0  9997
2 52737  97.6305  69.1201 0005664 235.0308 125.0400 15.30296804189230
GHGSAT-C4               
1 52746U 22057Q   25296.17275418  .00010302  00000+0  35404-3 0  9993
2 52746  97.6234  68.2079 0006133 218.9082 141.1717 15.30289254189247
GHGSAT-C5               
1 52744U 22057N   25296.18962373  .00010213  00000+0  35111-3 0  9991
2 52744  97.6394  70.4551 0006707 231.7829 128.2808 15.30277824189248
GHGSAT-C6               
1 56204U 23054AC  25295.99953928  .00015889  00000+0  33852-3 0  9992
2 56204  97.3172 197.7787 0008778 168.6480 191.4968 15.44972264141735
GHGSAT-C7               
1 56209U 23054AH  25295.93944903  .00013839  00000+0  30777-3 0  9990
2 56209  97.3133 197.0842 0008930 164.3361 195.8165 15.43729510141711
GHGSAT-C8               
1 56186U 23054J   25295.97337458  .00016327  00000+0  34781-3 0  9993
2 56186  97.3138 197.2009 0005433 180.6397 179.4846 15.44994767141715
SENTINEL-5P             
1 42969U 17064A   25296.08695787  .00000151  00000+0  92529-4 0  9999
2 42969  98.7696 235.1420 0001056  93.6010 266.5287 14.19561552415921
ENMAP                   
1 52159U 22033C   25296.20334446  .00000958  00000+0  14998-3 0  9997
2 52159  97.9774  16.8466 0001156  78.6011 281.5327 14.74952870191729
PRISMA                  
1 44072U 19015A   25296.15028310  .00001557  00000+0  19489-3 0  9998
2 44072  97.8750   9.3223 0001137 107.9215 252.2123 14.83674577356903
SENTINEL-2A             
1 40697U 15028A   25296.15174812 -.00003136  00000+0 -11803-2 0  9994
2 40697  98.5742   9.3940 0001182  86.3050 273.8268 14.30813989539832
SENTINEL-2B             
1 42063U 17013A   25296.21450288  .00000236  00000+0  10675-3 0  9993
2 42063  98.5676   9.3920 0000963  96.7410 263.3883 14.30819384450751
SENTINEL-2C             
1 60989U 24157A   25296.17968411  .00000247  00000+0  11102-3 0  9992
2 60989  98.5653   9.4164 0000964  93.8364 266.2929 14.30814507 59098
LANDSAT 8               
1 39084U 13008A   25296.18423788  .00000691  00000+0  16355-3 0  9999
2 39084  98.2128   4.9885 0001330  88.0671 272.0680 14.57096143663388
LANDSAT 9               
1 49260U 21088A   25296.14999860  .00000730  00000+0  17214-3 0  9997
2 49260  98.2151   4.9787 0001263  87.9256 272.2087 14.57122108216483
